CCSDS_OMM_VERS = 2.0
CREATION_DATE  = 
ORIGINATOR     = 

OBJECT_NAME    = STARLINK-35286
OBJECT_ID      = 2025-218N
CENTER_NAME    = EARTH
REF_FRAME      = TEME
TIME_SYSTEM    = UTC
MEAN_ELEMENT_THEORY = SGP/SGP4

EPOCH          = 2025-10-26T12:00:00.998784
MEAN_MOTION    = 15.38671537
ECCENTRICITY   = .0002014
INCLINATION    = 97.6027
RA_OF_ASC_NODE = 160.4522
ARG_OF_PERICENTER = 104.0441
MEAN_ANOMALY   = 235.6684

EPHEMERIS_TYPE = 0
CLASSIFICATION_TYPE = U
NORAD_CAT_ID   = 65803
ELEMENT_SET_NO = 999
REV_AT_EPOCH   = 607
BSTAR          = -.66849E-1
MEAN_MOTION_DOT = -.2281351E-1
MEAN_MOTION_DDOT = 0

CCSDS_OMM_VERS = 2.0
CREATION_DATE  = 
ORIGINATOR     = 

OBJECT_NAME    = STARLINK-35266
OBJECT_ID      = 2025-218P
CENTER_NAME    = EARTH
REF_FRAME      = TEME
TIME_SYSTEM    = UTC
MEAN_ELEMENT_THEORY = SGP/SGP4

EPOCH          = 2025-10-26T12:00:00.998784
MEAN_MOTION    = 15.40628566
ECCENTRICITY   = .0002008
INCLINATION    = 97.6029
RA_OF_ASC_NODE = 160.4593
ARG_OF_PERICENTER = 98.5918
MEAN_ANOMALY   = 255.9188

EPHEMERIS_TYPE = 0
CLASSIFICATION_TYPE = U
NORAD_CAT_ID   = 65804
ELEMENT_SET_NO = 999
REV_AT_EPOCH   = 607
BSTAR          = -.62153E-1
MEAN_MOTION_DOT = -.226461E-1
MEAN_MOTION_DDOT = 0

CCSDS_OMM_VERS = 2.0
CREATION_DATE  = 
ORIGINATOR     = 

OBJECT_NAME    = STARLINK-35273
OBJECT_ID      = 2025-218Q
CENTER_NAME    = EARTH
REF_FRAME      = TEME
TIME_SYSTEM    = UTC
MEAN_ELEMENT_THEORY = SGP/SGP4

EPOCH          = 2025-10-26T12:00:00.998784
MEAN_MOTION    = 15.41097921
ECCENTRICITY   = .0001939
INCLINATION    = 97.6034
RA_OF_ASC_NODE = 160.4609
ARG_OF_PERICENTER = 99.5387
MEAN_ANOMALY   = 259.5460

EPHEMERIS_TYPE = 0
CLASSIFICATION_TYPE = U
NORAD_CAT_ID   = 65805
ELEMENT_SET_NO = 999
REV_AT_EPOCH   = 607
BSTAR          = -.61379E-1
MEAN_MOTION_DOT = -.2270834E-1
MEAN_MOTION_DDOT = 0

CCSDS_OMM_VERS = 2.0
CREATION_DATE  = 
ORIGINATOR     = 

OBJECT_NAME    = STARLINK-35047
OBJECT_ID      = 2025-218R
CENTER_NAME    = EARTH
REF_FRAME      = TEME
TIME_SYSTEM    = UTC
MEAN_ELEMENT_THEORY = SGP/SGP4

EPOCH          = 2025-10-25T03:20:16.158624
MEAN_MOTION    = 15.49223595
ECCENTRICITY   = .00017037
INCLINATION    = 97.6025
RA_OF_ASC_NODE = 159.0337
ARG_OF_PERICENTER = 102.4443
MEAN_ANOMALY   = 257.6999

EPHEMERIS_TYPE = 0
CLASSIFICATION_TYPE = U
NORAD_CAT_ID   = 65806
ELEMENT_SET_NO = 999
REV_AT_EPOCH   = 455
BSTAR          = .14419741E-2
MEAN_MOTION_DOT = .79226E-3
MEAN_MOTION_DDOT = 0

CCSDS_OMM_VERS = 2.0
CREATION_DATE  = 
ORIGINATOR     = 

OBJECT_NAME    = STARLINK-35285
OBJECT_ID      = 2025-218S
CENTER_NAME    = EARTH
REF_FRAME      = TEME
TIME_SYSTEM    = UTC
MEAN_ELEMENT_THEORY = SGP/SGP4

EPOCH          = 2025-10-26T12:00:00.998784
MEAN_MOTION    = 15.42498035
ECCENTRICITY   = .000183
INCLINATION    = 97.6026
RA_OF_ASC_NODE = 160.4652
ARG_OF_PERICENTER = 97.7768
MEAN_ANOMALY   = 270.3245

EPHEMERIS_TYPE = 0
CLASSIFICATION_TYPE = U
NORAD_CAT_ID   = 65807
ELEMENT_SET_NO = 999
REV_AT_EPOCH   = 607
BSTAR          = -.58606E-1
MEAN_MOTION_DOT = -.227214E-1
MEAN_MOTION_DDOT = 0

CCSDS_OMM_VERS = 2.0
CREATION_DATE  = 
ORIGINATOR     = 

OBJECT_NAME    = STARLINK-34580
OBJECT_ID      = 2025-218T
CENTER_NAME    = EARTH
REF_FRAME      = TEME
TIME_SYSTEM    = UTC
MEAN_ELEMENT_THEORY = SGP/SGP4

EPOCH          = 2025-10-26T12:00:00.998784
MEAN_MOTION    = 15.43932630
ECCENTRICITY   = .0001722
INCLINATION    = 97.6030
RA_OF_ASC_NODE = 160.4664
ARG_OF_PERICENTER = 102.8345
MEAN_ANOMALY   = 274.8482

EPHEMERIS_TYPE = 0
CLASSIFICATION_TYPE = U
NORAD_CAT_ID   = 65808
ELEMENT_SET_NO = 999
REV_AT_EPOCH   = 607
BSTAR          = -.58007E-1
MEAN_MOTION_DOT = -.2351257E-1
MEAN_MOTION_DDOT = 0

CCSDS_OMM_VERS = 2.0
CREATION_DATE  = 
ORIGINATOR     = 

OBJECT_NAME    = STARLINK-35289
OBJECT_ID      = 2025-218U
CENTER_NAME    = EARTH
REF_FRAME      = TEME
TIME_SYSTEM    = UTC
MEAN_ELEMENT_THEORY = SGP/SGP4

EPOCH          = 2025-10-26T12:00:00.998784
MEAN_MOTION    = 15.44387389
ECCENTRICITY   = .0001773
INCLINATION    = 97.6027
RA_OF_ASC_NODE = 160.4651
ARG_OF_PERICENTER = 69.8707
MEAN_ANOMALY   = 311.0847

EPHEMERIS_TYPE = 0
CLASSIFICATION_TYPE = U
NORAD_CAT_ID   = 65809
ELEMENT_SET_NO = 999
REV_AT_EPOCH   = 597
BSTAR          = -.6118E-1
MEAN_MOTION_DOT = -.2499611E-1
MEAN_MOTION_DDOT = 0

CCSDS_OMM_VERS = 2.0
CREATION_DATE  = 
ORIGINATOR     = 

OBJECT_NAME    = STARLINK-35268
OBJECT_ID      = 2025-218V
CENTER_NAME    = EARTH
REF_FRAME      = TEME
TIME_SYSTEM    = UTC
MEAN_ELEMENT_THEORY = SGP/SGP4

EPOCH          = 2025-10-26T12:00:00.998784
MEAN_MOTION    = 15.46730731
ECCENTRICITY   = .000178
INCLINATION    = 97.6032
RA_OF_ASC_NODE = 160.4691
ARG_OF_PERICENTER = 65.8648
MEAN_ANOMALY   = 324.8787

EPHEMERIS_TYPE = 0
CLASSIFICATION_TYPE = U
NORAD_CAT_ID   = 65810
ELEMENT_SET_NO = 999
REV_AT_EPOCH   = 607
BSTAR          = -.56952E-1
MEAN_MOTION_DOT = -.251969E-1
MEAN_MOTION_DDOT = 0

CCSDS_OMM_VERS = 2.0
CREATION_DATE  = 
ORIGINATOR     = 

OBJECT_NAME    = STARLINK-35224
OBJECT_ID      = 2025-218W
CENTER_NAME    = EARTH
REF_FRAME      = TEME
TIME_SYSTEM    = UTC
MEAN_ELEMENT_THEORY = SGP/SGP4

EPOCH          = 2025-10-25T14:09:52.166304
MEAN_MOTION    = 15.49209807
ECCENTRICITY   = .00012218
INCLINATION    = 97.6025
RA_OF_ASC_NODE = 159.5109
ARG_OF_PERICENTER = 59.5093
MEAN_ANOMALY   = 300.6278

EPHEMERIS_TYPE = 0
CLASSIFICATION_TYPE = U
NORAD_CAT_ID   = 65811
ELEMENT_SET_NO = 999
REV_AT_EPOCH   = 462
BSTAR          = .1272796E-2
MEAN_MOTION_DOT = .69801E-3
MEAN_MOTION_DDOT = 0

CCSDS_OMM_VERS = 2.0
CREATION_DATE  = 
ORIGINATOR     = 

OBJECT_NAME    = STARLINK-35271
OBJECT_ID      = 2025-218X
CENTER_NAME    = EARTH
REF_FRAME      = TEME
TIME_SYSTEM    = UTC
MEAN_ELEMENT_THEORY = SGP/SGP4

EPOCH          = 2025-10-26T10:18:10.475424
MEAN_MOTION    = 15.48518800
ECCENTRICITY   = .0001074
INCLINATION    = 97.6027
RA_OF_ASC_NODE = 160.3964
ARG_OF_PERICENTER = 110.1980
MEAN_ANOMALY   = 249.9385

EPHEMERIS_TYPE = 0
CLASSIFICATION_TYPE = U
NORAD_CAT_ID   = 65812
ELEMENT_SET_NO = 999
REV_AT_EPOCH   = 475
BSTAR          = -.67109E-2
MEAN_MOTION_DOT = -.341637E-2
MEAN_MOTION_DDOT = 0

CCSDS_OMM_VERS = 2.0
CREATION_DATE  = 
ORIGINATOR     = 

OBJECT_NAME    = STARLINK-35215
OBJECT_ID      = 2025-218Y
CENTER_NAME    = EARTH
REF_FRAME      = TEME
TIME_SYSTEM    = UTC
MEAN_ELEMENT_THEORY = SGP/SGP4

EPOCH          = 2025-10-26T08:44:31.714080
MEAN_MOTION    = 15.49200267
ECCENTRICITY   = .0002092
INCLINATION    = 97.6031
RA_OF_ASC_NODE = 160.3299
ARG_OF_PERICENTER = 71.7513
MEAN_ANOMALY   = 288.3965

EPHEMERIS_TYPE = 0
CLASSIFICATION_TYPE = U
NORAD_CAT_ID   = 65813
ELEMENT_SET_NO = 999
REV_AT_EPOCH   = 474
BSTAR          = .10908E-2
MEAN_MOTION_DOT = .5971E-3
MEAN_MOTION_DDOT = 0

CCSDS_OMM_VERS = 2.0
CREATION_DATE  = 
ORIGINATOR     = 

OBJECT_NAME    = STARLINK-35157
OBJECT_ID      = 2025-218Z
CENTER_NAME    = EARTH
REF_FRAME      = TEME
TIME_SYSTEM    = UTC
MEAN_ELEMENT_THEORY = SGP/SGP4

EPOCH          = 2025-10-26T08:44:02.079744
MEAN_MOTION    = 15.49217192
ECCENTRICITY   = .0002472
INCLINATION    = 97.6029
RA_OF_ASC_NODE = 160.3297
ARG_OF_PERICENTER = 81.5726
MEAN_ANOMALY   = 278.5805

EPHEMERIS_TYPE = 0
CLASSIFICATION_TYPE = U
NORAD_CAT_ID   = 65814
ELEMENT_SET_NO = 999
REV_AT_EPOCH   = 474
BSTAR          = .17358E-2
MEAN_MOTION_DOT = .95569E-3
MEAN_MOTION_DDOT = 0

