STARLINK-35286          
1 65803U 25218N   25299.50001156 -.02281351  00000+0 -66849-1 0  9992
2 65803  97.6027 160.4522 0002014 104.0441 235.6684 15.38671537  6079
STARLINK-35266          
1 65804U 25218P   25299.50001156 -.02264610  00000+0 -62153-1 0  9996
2 65804  97.6029 160.4593 0002008  98.5918 255.9188 15.40628566  6070
STARLINK-35273          
1 65805U 25218Q   25299.50001156 -.02270834  00000+0 -61379-1 0  9991
2 65805  97.6034 160.4609 0001939  99.5387 259.5460 15.41097921  6077
STARLINK-35047          
1 65806U 25218R   25298.13907591  .00079226  00000+0  14420-2 0  9992
2 65806  97.6025 159.0337 0001703 102.4443 257.6999 15.49223595  4559
STARLINK-35285          
1 65807U 25218S   25299.50001156 -.02272140  00000+0 -58606-1 0  9994
2 65807  97.6026 160.4652 0001830  97.7768 270.3245 15.42498035  6075
STARLINK-34580          
1 65808U 25218T   25299.50001156 -.02351257  00000+0 -58007-1 0  9997
2 65808  97.6030 160.4664 0001722 102.8345 274.8482 15.43932630  6070
STARLINK-35289          
1 65809U 25218U   25299.50001156 -.02499611  00000+0 -61180-1 0  9991
2 65809  97.6027 160.4651 0001773  69.8707 311.0847 15.44387389  5976
STARLINK-35268          
1 65810U 25218V   25299.50001156 -.02519690  00000+0 -56952-1 0  9994
2 65810  97.6032 160.4691 0001780  65.8648 324.8787 15.46730731  6078
STARLINK-35224          
1 65811U 25218W   25298.59018711  .00069801  00000+0  12728-2 0  9992
2 65811  97.6025 159.5109 0001221  59.5093 300.6278 15.49209807  4622
STARLINK-35271          
1 65812U 25218X   25299.42928791 -.00341637  00000+0 -67109-2 0  9999
2 65812  97.6027 160.3964 0001074 110.1980 249.9385 15.48518800  4752
STARLINK-35215          
1 65813U 25218Y   25299.36425595  .00059710  00000+0  10908-2 0  9998
2 65813  97.6031 160.3299 0002092  71.7513 288.3965 15.49200267  4740
STARLINK-35157          
1 65814U 25218Z   25299.36391296  .00095569  00000+0  17358-2 0  9997
2 65814  97.6029 160.3297 0002472  81.5726 278.5805 15.49217192  4742
